[{"OBJECT_NAME":"STARLINK-5815","OBJECT_ID":"2023-028BA","EPOCH":"2026-03-09T17:33:37.566720","MEAN_MOTION":14.98334592,"ECCENTRICITY":0.00032199,"INCLINATION":70.0005,"RA_OF_ASC_NODE":204.3003,"ARG_OF_PERICENTER":269.9017,"MEAN_ANOMALY":90.1773,"EPHEMERIS_TYPE":0,"CLASSIFICATION_TYPE":"U","NORAD_CAT_ID":55789,"ELEMENT_SET_NO":999,"REV_AT_EPOCH":16703,"BSTAR":1.5170717e-5,"MEAN_MOTION_DOT":8.8e-7,"MEAN_MOTION_DDOT":0},{"OBJECT_NAME":"CZ-4C DEB","OBJECT_ID":"2010-038C","EPOCH":"2026-03-09T11:39:53.947584","MEAN_MOTION":15.01546644,"ECCENTRICITY":0.00721012,"INCLINATION":97.7316,"RA_OF_ASC_NODE":260.9237,"ARG_OF_PERICENTER":198.3771,"MEAN_ANOMALY":193.4151,"EPHEMERIS_TYPE":0,"CLASSIFICATION_TYPE":"U","NORAD_CAT_ID":37567,"ELEMENT_SET_NO":999,"REV_AT_EPOCH":82756,"BSTAR":0.0017211285,"MEAN_MOTION_DOT":0.00023562,"MEAN_MOTION_DDOT":0}]
